[{"OBJECT_NAME":"STARLINK-32672","OBJECT_ID":"2024-229D","EPOCH":"2026-03-09T23:01:13.117440","MEAN_MOTION":15.27591604,"ECCENTRICITY":0.00028318,"INCLINATION":43.0028,"RA_OF_ASC_NODE":269.1028,"ARG_OF_PERICENTER":248.7074,"MEAN_ANOMALY":111.3475,"EPHEMERIS_TYPE":0,"CLASSIFICATION_TYPE":"U","NORAD_CAT_ID":62195,"ELEMENT_SET_NO":999,"REV_AT_EPOCH":7060,"BSTAR":0.00057822556,"MEAN_MOTION_DOT":0.0001569,"MEAN_MOTION_DDOT":0},{"OBJECT_NAME":"GEOSCAN 4 (RS92S4)","OBJECT_ID":"2025-155S","EPOCH":"2026-03-09T21:50:07.724832","MEAN_MOTION":15.30369837,"ECCENTRICITY":0.00070968,"INCLINATION":97.4465,"RA_OF_ASC_NODE":37.7626,"ARG_OF_PERICENTER":154.7045,"MEAN_ANOMALY":205.4544,"EPHEMERIS_TYPE":0,"CLASSIFICATION_TYPE":"U","NORAD_CAT_ID":64892,"ELEMENT_SET_NO":999,"REV_AT_EPOCH":6562,"BSTAR":0.00068609503,"MEAN_MOTION_DOT":0.00020121,"MEAN_MOTION_DDOT":0}]
